start=new Date('2023-06-07T00:00:00.000Z').valueOf();
sats=[{"OBJECT_TYPE":"PAYLOAD","MEAN_MOTION":"15.02532573","COUNTRY_CODE":"US","MEAN_MOTION_DOT":"-0.00000769","GP_ID":"233329430","ELEMENT_SET_NO":"999","FILE":"3926325","PERIAPSIS":"558.119","OBJECT_NAME":"STARLINK-5405","SEMIMAJOR_AXIS":"6937.227","MEAN_ELEMENT_THEORY":"SGP4","REF_FRAME":"TEME","INCLINATION":"43.0033","REV_AT_EPOCH":"2559","EPHEMERIS_TYPE":"0","DECAY_DATE":null,"EPOCH":"2023-06-06T11:16:04.980576","CENTER_NAME":"EARTH","BSTAR":"-0.00004189600000","SITE":"AFETR","ECCENTRICITY":"0.00014030","PERIOD":"95.838","MEAN_MOTION_DDOT":"0.0000000000000","TLE_LINE1":"1 54863U 22177AV  23157.46950209 -.00000769  00000-0 -41896-4 0  9994","TIME_SYSTEM":"UTC","LAUNCH_DATE":"2022-12-28","CLASSIFICATION_TYPE":"U","RA_OF_ASC_NODE":"193.2362","RCS_SIZE":"LARGE","MEAN_ANOMALY":"91.0636","NORAD_CAT_ID":"54863","TLE_LINE2":"2 54863  43.0033 193.2362 0001403 269.0046  91.0636 15.02532573 25591","ARG_OF_PERICENTER":"269.0046","APOAPSIS":"560.065","OBJECT_ID":"2022-177AV"},{"SEMIMAJOR_AXIS":"6937.205","OBJECT_NAME":"STARLINK-5359","PERIAPSIS":"558.089","ELEMENT_SET_NO":"999","FILE":"3926571","GP_ID":"233361513","COUNTRY_CODE":"US","MEAN_MOTION_DOT":"0.00000429","MEAN_MOTION":"15.02539688","OBJECT_TYPE":"PAYLOAD","EPHEMERIS_TYPE":"0","REV_AT_EPOCH":"2561","INCLINATION":"43.0036","REF_FRAME":"TEME","MEAN_ELEMENT_THEORY":"SGP4","CLASSIFICATION_TYPE":"U","LAUNCH_DATE":"2022-12-28","TIME_SYSTEM":"UTC","MEAN_MOTION_DDOT":"0.0000000000000","TLE_LINE1":"1 54864U 22177AW  23157.58913394  .00000429  00000-0  46833-4 0  9999","PERIOD":"95.838","ECCENTRICITY":"0.00014150","SITE":"AFETR","BSTAR":"0.00004683300000","CENTER_NAME":"EARTH","EPOCH":"2023-06-06T14:08:21.172416","DECAY_DATE":null,"OBJECT_ID":"2022-177AW","APOAPSIS":"560.052","ARG_OF_PERICENTER":"271.6491","TLE_LINE2":"2 54864  43.0036 192.4139 0001415 271.6491  88.4189 15.02539688 25614","NORAD_CAT_ID":"54864","MEAN_ANOMALY":"88.4189","RCS_SIZE":"LARGE","RA_OF_ASC_NODE":"192.4139"},{"MEAN_ANOMALY":"96.3357","RCS_SIZE":"LARGE","RA_OF_ASC_NODE":"194.7058","OBJECT_ID":"2022-177AX","APOAPSIS":"560.008","ARG_OF_PERICENTER":"263.7334","TLE_LINE2":"2 54865  43.0027 194.7058 0001326 263.7334  96.3357 15.02533998 25555","NORAD_CAT_ID":"54865","SITE":"AFETR","BSTAR":"0.00002561300000","ECCENTRICITY":"0.00013260","CENTER_NAME":"EARTH","DECAY_DATE":null,"EPOCH":"2023-06-06T04:57:57.894912","CLASSIFICATION_TYPE":"U","LAUNCH_DATE":"2022-12-28","TIME_SYSTEM":"UTC","MEAN_MOTION_DDOT":"0.0000000000000","TLE_LINE1":"1 54865U 22177AX  23157.20692008  .00000142  00000-0  25613-4 0  9990","PERIOD":"95.838","REF_FRAME":"TEME","MEAN_ELEMENT_THEORY":"SGP4","EPHEMERIS_TYPE":"0","REV_AT_EPOCH":"2555","INCLINATION":"43.0027","COUNTRY_CODE":"US","MEAN_MOTION_DOT":"0.00000142","MEAN_MOTION":"15.02533998","OBJECT_TYPE":"PAYLOAD","OBJECT_NAME":"STARLINK-5411","SEMIMAJOR_AXIS":"6937.223","PERIAPSIS":"558.168","FILE":"3926325","ELEMENT_SET_NO":"999","GP_ID":"233327932"},{"GP_ID":"233360512","ELEMENT_SET_NO":"999","FILE":"3926571","PERIAPSIS":"558.122","SEMIMAJOR_AXIS":"6937.202","OBJECT_NAME":"STARLINK-5398","OBJECT_TYPE":"PAYLOAD","MEAN_MOTION":"15.02540750","COUNTRY_CODE":"US","MEAN_MOTION_DOT":"0.00000547","INCLINATION":"43.0032","REV_AT_EPOCH":"2561","EPHEMERIS_TYPE":"0","MEAN_ELEMENT_THEORY":"SGP4","REF_FRAME":"TEME","PERIOD":"95.838","MEAN_MOTION_DDOT":"0.0000000000000","TLE_LINE1":"1 54866U 22177AY  23157.58136312  .00000547  00000-0  55573-4 0  9990","TIME_SYSTEM":"UTC","LAUNCH_DATE":"2022-12-28","CLASSIFICATION_TYPE":"U","EPOCH":"2023-06-06T13:57:09.773568","DECAY_DATE":null,"CENTER_NAME":"EARTH","ECCENTRICITY":"0.00013620","SITE":"AFETR","BSTAR":"0.00005557300000","NORAD_CAT_ID":"54866","TLE_LINE2":"2 54866  43.0032 192.3553 0001362 275.5373  84.5314 15.02540750 25613","ARG_OF_PERICENTER":"275.5373","APOAPSIS":"560.012","OBJECT_ID":"2022-177AY","RA_OF_ASC_NODE":"192.3553","RCS_SIZE":"LARGE","MEAN_ANOMALY":"84.5314"},{"REF_FRAME":"TEME","MEAN_ELEMENT_THEORY":"SGP4","INCLINATION":"43.0033","REV_AT_EPOCH":"2560","EPHEMERIS_TYPE":"0","MEAN_MOTION_DOT":"-0.00000132","COUNTRY_CODE":"US","OBJECT_TYPE":"PAYLOAD","MEAN_MOTION":"15.02534082","ELEMENT_SET_NO":"999","FILE":"3926325","PERIAPSIS":"558.092","OBJECT_NAME":"STARLINK-5396","SEMIMAJOR_AXIS":"6937.222","GP_ID":"233328931","RCS_SIZE":"LARGE","MEAN_ANOMALY":"89.5513","RA_OF_ASC_NODE":"192.8102","ARG_OF_PERICENTER":"270.5165","APOAPSIS":"560.083","OBJECT_ID":"2022-177AZ","TLE_LINE2":"2 54867  43.0033 192.8102 0001435 270.5165  89.5513 15.02534082 25601","NORAD_CAT_ID":"54867","ECCENTRICITY":"0.00014350","SITE":"AFETR","BSTAR":"0.00000529560000","EPOCH":"2023-06-06T12:39:01.477152","DECAY_DATE":null,"CENTER_NAME":"EARTH","LAUNCH_DATE":"2022-12-28","CLASSIFICATION_TYPE":"U","PERIOD":"95.838","TLE_LINE1":"1 54867U 22177AZ  23157.52710043 -.00000132  00000-0  52956-5 0  9998","MEAN_MOTION_DDOT":"0.0000000000000","TIME_SYSTEM":"UTC"},{"TIME_SYSTEM":"UTC","TLE_LINE1":"1 54868U 22177BA  23157.44286082  .00000315  00000-0  38380-4 0  9997","MEAN_MOTION_DDOT":"0.0000000000000","PERIOD":"95.838","CLASSIFICATION_TYPE":"U","LAUNCH_DATE":"2022-12-28","CENTER_NAME":"EARTH","DECAY_DATE":null,"EPOCH":"2023-06-06T10:37:43.174848","BSTAR":"0.00003838000000","SITE":"AFETR","ECCENTRICITY":"0.00014070","NORAD_CAT_ID":"54868","TLE_LINE2":"2 54868  43.0034 193.0351 0001407 281.0456  79.0228 15.02538414 25599","OBJECT_ID":"2022-177BA","APOAPSIS":"560.050","ARG_OF_PERICENTER":"281.0456","RA_OF_ASC_NODE":"193.0351","MEAN_ANOMALY":"79.0228","RCS_SIZE":"LARGE","GP_ID":"233328182","SEMIMAJOR_AXIS":"6937.209","OBJECT_NAME":"STARLINK-5379","PERIAPSIS":"558.098","ELEMENT_SET_NO":"999","FILE":"3926325","MEAN_MOTION":"15.02538414","OBJECT_TYPE":"PAYLOAD","MEAN_MOTION_DOT":"0.00000315","COUNTRY_CODE":"US","EPHEMERIS_TYPE":"0","REV_AT_EPOCH":"2559","INCLINATION":"43.0034","MEAN_ELEMENT_THEORY":"SGP4","REF_FRAME":"TEME"},{"OBJECT_TYPE":"PAYLOAD","MEAN_MOTION":"15.02834501","MEAN_MOTION_DOT":"0.00040283","COUNTRY_CODE":"US","GP_ID":"233334009","ELEMENT_SET_NO":"999","FILE":"3926485","PERIAPSIS":"555.671","SEMIMAJOR_AXIS":"6936.298","OBJECT_NAME":"STARLINK-5402","MEAN_ELEMENT_THEORY":"SGP4","REF_FRAME":"TEME","INCLINATION":"43.0027","REV_AT_EPOCH":"2449","EPHEMERIS_TYPE":"0","EPOCH":"2023-06-06T12:24:15.944544","DECAY_DATE":null,"CENTER_NAME":"EARTH","SITE":"AFETR","BSTAR":"0.00295630000000","ECCENTRICITY":"0.00035930","PERIOD":"95.819","MEAN_MOTION_DDOT":"0.0000000000000","TLE_LINE1":"1 54869U 22177BB  23157.51685121  .00040283  00000-0  29563-2 0  9992","TIME_SYSTEM":"UTC","LAUNCH_DATE":"2022-12-28","CLASSIFICATION_TYPE":"U","RA_OF_ASC_NODE":"192.7318","RCS_SIZE":"LARGE","MEAN_ANOMALY":"356.6561","NORAD_CAT_ID":"54869","TLE_LINE2":"2 54869  43.0027 192.7318 0003593   3.4306 356.6561 15.02834501 24497","ARG_OF_PERICENTER":"3.4306","APOAPSIS":"560.655","OBJECT_ID":"2022-177BB"},{"MEAN_ELEMENT_THEORY":"SGP4","REF_FRAME":"TEME","INCLINATION":"43.0036","REV_AT_EPOCH":"2561","EPHEMERIS_TYPE":"0","OBJECT_TYPE":"PAYLOAD","MEAN_MOTION":"15.02537039","COUNTRY_CODE":"US","MEAN_MOTION_DOT":"-0.00000407","GP_ID":"233360013","ELEMENT_SET_NO":"999","FILE":"3926571","PERIAPSIS":"558.118","SEMIMAJOR_AXIS":"6937.213","OBJECT_NAME":"STARLINK-5401","RA_OF_ASC_NODE":"192.3382","RCS_SIZE":"LARGE","MEAN_ANOMALY":"85.6272","NORAD_CAT_ID":"54870","TLE_LINE2":"2 54870  43.0036 192.3382 0001385 274.4412  85.6272 15.02537039 25610","ARG_OF_PERICENTER":"274.4412","APOAPSIS":"560.039","OBJECT_ID":"2022-177BC","DECAY_DATE":null,"EPOCH":"2023-06-06T13:53:58.102080","CENTER_NAME":"EARTH","BSTAR":"-0.00001507300000","SITE":"AFETR","ECCENTRICITY":"0.00013850","PERIOD":"95.838","MEAN_MOTION_DDOT":"0.0000000000000","TLE_LINE1":"1 54870U 22177BC  23157.57914470 -.00000407  00000-0 -15073-4 0  9991","TIME_SYSTEM":"UTC","LAUNCH_DATE":"2022-12-28","CLASSIFICATION_TYPE":"U"},{"COUNTRY_CODE":"US","MEAN_MOTION_DOT":"0.00043824","OBJECT_TYPE":"PAYLOAD","MEAN_MOTION":"15.02862458","PERIAPSIS":"556.191","FILE":"3926521","ELEMENT_SET_NO":"999","OBJECT_NAME":"STARLINK-5397","SEMIMAJOR_AXIS":"6936.212","GP_ID":"233335022","REF_FRAME":"TEME","MEAN_ELEMENT_THEORY":"SGP4","INCLINATION":"43.0029","EPHEMERIS_TYPE":"0","REV_AT_EPOCH":"2450","SITE":"AFETR","ECCENTRICITY":"0.00027190","BSTAR":"0.00321100000000","DECAY_DATE":null,"EPOCH":"2023-06-06T12:30:36.899424","CENTER_NAME":"EARTH","LAUNCH_DATE":"2022-12-28","CLASSIFICATION_TYPE":"U","PERIOD":"95.817","TIME_SYSTEM":"UTC","MEAN_MOTION_DDOT":"0.0000000000000","TLE_LINE1":"1 54871U 22177BD  23157.52126041  .00043824  00000-0  32110-2 0  9993","RCS_SIZE":"LARGE","MEAN_ANOMALY":"32.8463","RA_OF_ASC_NODE":"192.7656","APOAPSIS":"559.963","ARG_OF_PERICENTER":"327.2210","OBJECT_ID":"2022-177BD","TLE_LINE2":"2 54871  43.0029 192.7656 0002719 327.2210  32.8463 15.02862458 24505","NORAD_CAT_ID":"54871"},{"CENTER_NAME":"EARTH","EPOCH":"2023-06-06T13:42:47.602656","DECAY_DATE":null,"ECCENTRICITY":"0.00014940","SITE":"AFETR","BSTAR":"-0.00001442400000","TLE_LINE1":"1 54872U 22177BE  23157.57138429 -.00000398  00000-0 -14424-4 0  9993","MEAN_MOTION_DDOT":"0.0000000000000","TIME_SYSTEM":"UTC","PERIOD":"95.838","CLASSIFICATION_TYPE":"U","LAUNCH_DATE":"2022-12-28","RA_OF_ASC_NODE":"192.3056","MEAN_ANOMALY":"86.1528","RCS_SIZE":"LARGE","TLE_LINE2":"2 54872  43.0029 192.3056 0001494 273.9143  86.1528 15.02534687 25614","NORAD_CAT_ID":"54872","OBJECT_ID":"2022-177BE","ARG_OF_PERICENTER":"273.9143","APOAPSIS":"560.122","MEAN_MOTION":"15.02534687","OBJECT_TYPE":"PAYLOAD","MEAN_MOTION_DOT":"-0.00000398","COUNTRY_CODE":"US","GP_ID":"233361514","SEMIMAJOR_AXIS":"6937.221","OBJECT_NAME":"STARLINK-5390","FILE":"3926571","ELEMENT_SET_NO":"999","PERIAPSIS":"558.049","MEAN_ELEMENT_THEORY":"SGP4","REF_FRAME":"TEME","REV_AT_EPOCH":"2561","EPHEMERIS_TYPE":"0","INCLINATION":"43.0029"}];
